


(Exported by FreeCAD)
(Post Processor: linuxcnc_post)
(Output Time:2026-01-02 22:40:58.184864)
(begin preamble)
G17 G54 G40 G49 G80 G90
G21
(begin operation: Fixture)
(machine units: mm/min)
G54
(finish operation: Fixture)
(begin operation: test_1mm_Drill001)
(machine units: mm/min)
(test_1mm_Drill001)
M5
M6 T3
G43 H3
(finish operation: test_1mm_Drill001)
(begin operation: Pocket_Shape)
(machine units: mm/min)
(Pocket_Shape)
G0 Z17.500
G0 X9.821 Y9.513
G0 Z15.500
G1 X9.821 Y9.513 Z7.500
G1 X-8.608 Y-7.673 Z7.500
G0 Z17.500
G0 Y-6.305 Z17.500
G0 Y-6.305 Z15.500
G1 X-8.608 Y-6.305 Z7.500
G1 X8.355 Y9.513 Z7.500
G0 Z17.500
G0 X6.889 Z17.500
G0 X6.889 Z15.500
G1 X6.889 Y9.513 Z7.500
G1 X-8.608 Y-4.938 Z7.500
G0 Z17.500
G0 Y-3.571 Z17.500
G0 Y-3.571 Z15.500
G1 X-8.608 Y-3.571 Z7.500
G1 X5.422 Y9.513 Z7.500
G0 Z17.500
G0 X3.956 Z17.500
G0 X3.956 Z15.500
G1 X3.956 Y9.513 Z7.500
G1 X-8.608 Y-2.203 Z7.500
G0 Z17.500
G0 Y-0.836 Z17.500
G0 Y-0.836 Z15.500
G1 X-8.608 Y-0.836 Z7.500
G1 X2.490 Y9.513 Z7.500
G0 Z17.500
G0 X1.024 Z17.500
G0 X1.024 Z15.500
G1 X1.024 Y9.513 Z7.500
G1 X-8.608 Y0.531 Z7.500
G0 Z17.500
G0 Y1.899 Z17.500
G0 Y1.899 Z15.500
G1 X-8.608 Y1.899 Z7.500
G1 X-0.443 Y9.513 Z7.500
G0 Z17.500
G0 X-1.909 Z17.500
G0 X-1.909 Z15.500
G1 X-1.909 Y9.513 Z7.500
G1 X-8.608 Y3.266 Z7.500
G0 Z17.500
G0 Y4.633 Z17.500
G0 Y4.633 Z15.500
G1 X-8.608 Y4.633 Z7.500
G1 X-3.375 Y9.513 Z7.500
G0 Z17.500
G0 X-4.842 Z17.500
G0 X-4.842 Z15.500
G1 X-4.842 Y9.513 Z7.500
G1 X-8.608 Y6.001 Z7.500
G0 Z17.500
G0 Y7.368 Z17.500
G0 Y7.368 Z15.500
G1 X-8.608 Y7.368 Z7.500
G1 X-6.308 Y9.513 Z7.500
G0 Z17.500
G0 X-7.774 Z17.500
G0 X-7.774 Z15.500
G1 X-7.774 Y9.513 Z7.500
G1 X-8.608 Y8.735 Z7.500
G0 Z17.500
G0 Y-9.040 Z17.500
G0 Y-9.040 Z15.500
G1 X-8.608 Y-9.040 Z7.500
G1 X10.392 Y8.678 Z7.500
G0 Z17.500
G0 Y7.311 Z17.500
G0 Y7.311 Z15.500
G1 X10.392 Y7.311 Z7.500
G1 X-7.621 Y-9.487 Z7.500
G0 Z17.500
G0 X-6.155 Z17.500
G0 X-6.155 Z15.500
G1 X-6.155 Y-9.487 Z7.500
G1 X10.392 Y5.943 Z7.500
G0 Z17.500
G0 Y4.576 Z17.500
G0 Y4.576 Z15.500
G1 X10.392 Y4.576 Z7.500
G1 X-4.689 Y-9.487 Z7.500
G0 Z17.500
G0 X-3.222 Z17.500
G0 X-3.222 Z15.500
G1 X-3.222 Y-9.487 Z7.500
G1 X10.392 Y3.209 Z7.500
G0 Z17.500
G0 Y1.841 Z17.500
G0 Y1.841 Z15.500
G1 X10.392 Y1.841 Z7.500
G1 X-1.756 Y-9.487 Z7.500
G0 Z17.500
G0 X-0.290 Z17.500
G0 X-0.290 Z15.500
G1 X-0.290 Y-9.487 Z7.500
G1 X10.392 Y0.474 Z7.500
G0 Z17.500
G0 Y-0.893 Z17.500
G0 Y-0.893 Z15.500
G1 X10.392 Y-0.893 Z7.500
G1 X1.177 Y-9.487 Z7.500
G0 Z17.500
G0 X2.643 Z17.500
G0 X2.643 Z15.500
G1 X2.643 Y-9.487 Z7.500
G1 X10.392 Y-2.261 Z7.500
G0 Z17.500
G0 Y-3.628 Z17.500
G0 Y-3.628 Z15.500
G1 X10.392 Y-3.628 Z7.500
G1 X4.109 Y-9.487 Z7.500
G0 Z17.500
G0 X5.575 Z17.500
G0 X5.575 Z15.500
G1 X5.575 Y-9.487 Z7.500
G1 X10.392 Y-4.995 Z7.500
G0 Z17.500
G0 Y-6.363 Z17.500
G0 Y-6.363 Z15.500
G1 X10.392 Y-6.363 Z7.500
G1 X7.042 Y-9.487 Z7.500
G0 Z17.500
G0 X8.508 Z17.500
G0 X8.508 Z15.500
G1 X8.508 Y-9.487 Z7.500
G1 X10.392 Y-7.730 Z7.500
G0 Z17.500
G0 Y-9.097 Z17.500
G0 Y-9.097 Z15.500
G1 X10.392 Y-9.097 Z7.500
G1 X9.974 Y-9.487 Z7.500
G0 Z17.500
G0 Z17.500
(finish operation: Pocket_Shape)
(begin operation: Pocket_Shape001)
(machine units: mm/min)
(Pocket_Shape001)
G0 Z17.500
G0
G0 X19.806 Y7.961
G0 X19.806 Y7.961 Z15.500
G1 X19.806 Y7.961 Z7.500
G1 X19.827 Y7.914 Z7.500
G3 X19.806 Y7.961 Z7.500 I-0.189 J-0.057
G0 Z17.500
G0 X19.611 Y4.789 Z17.500
G0 X19.611 Y4.789 Z15.500
G1 X19.611 Y4.789 Z7.500
G2 X19.509 Y4.626 Z7.500 I-0.961 J0.490
G3 X19.611 Y4.789 Z7.500 I-0.564 J0.468
G0 Z17.500
G0 X14.158 Y4.623 Z17.500
G0 X14.158 Y4.623 Z15.500
G1 X14.158 Y4.623 Z7.500
G3 X14.271 Y4.466 Z7.500 I0.647 J0.345
G2 X14.158 Y4.623 Z7.500 I0.817 J0.704
G0 Z17.500
G0 X15.277 Y3.638 Z17.500
G0 X15.277 Y3.638 Z15.500
G1 X15.277 Y3.638 Z7.500
G1 X15.232 Y3.663 Z7.500
G3 X15.277 Y3.638 Z7.500 I0.117 J0.158
G0 Z17.500
G0 X19.281 Y8.743 Z17.500
G0 X19.281 Y8.743 Z15.500
G1 X19.281 Y8.743 Z7.500
G1 X19.417 Y8.580 Z7.500
G3 X19.281 Y8.743 Z7.500 I-0.684 J-0.433
G0 Z17.500
G0 X19.325 Y4.400 Z17.500
G0 X19.325 Y4.400 Z15.500
G1 X19.325 Y4.400 Z7.500
G1 X19.182 Y4.242 Z7.500
G3 X19.325 Y4.400 Z7.500 I-0.523 J0.616
G0 Z17.500
G0 X18.353 Y3.630 Z17.500
G0 X18.353 Y3.630 Z15.500
G1 X18.353 Y3.630 Z7.500
G1 X18.171 Y3.535 Z7.500
G3 X18.353 Y3.630 Z7.500 I-0.266 J0.737
G0 Z17.500
G0 X18.965 Y4.038 Z17.500
G0 X18.965 Y4.038 Z15.500
G1 X18.965 Y4.038 Z7.500
G1 X18.798 Y3.909 Z7.500
G3 X18.965 Y4.038 Z7.500 I-0.403 J0.696
G0 Z17.500
G0 X16.164 Y3.321 Z17.500
G0 X16.164 Y3.321 Z15.500
G1 X16.164 Y3.321 Z7.500
G1 X15.958 Y3.371 Z7.500
G3 X16.164 Y3.321 Z7.500 I0.292 J0.754
G0 Z17.500
G0 X20.122 Y6.696 Z17.500
G0 X20.122 Y6.696 Z15.500
G1 X20.122 Y6.696 Z7.500
G2 X20.119 Y6.504 Z7.500 I-1.076 J-0.080
G3 X20.122 Y6.696 Z7.500 I-0.725 J0.107
G0 Z17.500
G0 X20.113 Y6.263 Z17.500
G0 X20.113 Y6.263 Z15.500
G1 X20.113 Y6.263 Z7.500
G1 X20.109 Y6.223 Z7.500
G3 X20.113 Y6.263 Z7.500 I-0.151 J0.037
G0 Z17.500
G0 X14.620 Y4.103 Z17.500
G0 X14.620 Y4.103 Z15.500
G1 X14.620 Y4.103 Z7.500
G1 X14.468 Y4.252 Z7.500
G3 X14.620 Y4.103 Z7.500 I0.636 J0.498
G0 Z17.500
G0 X14.440 Y8.817 Z17.500
G0 X14.440 Y8.817 Z15.500
G1 X14.440 Y8.817 Z7.500
G1 X14.592 Y8.961 Z7.500
G3 X14.440 Y8.817 Z7.500 I0.467 J-0.647
G0 Z17.500
G0 X15.673 Y3.459 Z17.500
G0 X15.673 Y3.459 Z15.500
G1 X15.673 Y3.459 Z7.500
G1 X15.485 Y3.542 Z7.500
G3 X15.673 Y3.459 Z7.500 I0.408 J0.668
G0 Z17.500
G0 X13.752 Y7.729 Z17.500
G0 X13.752 Y7.729 Z15.500
G1 X13.752 Y7.729 Z7.500
G1 X13.771 Y7.777 Z7.500
G3 X13.752 Y7.729 Z7.500 I0.173 J-0.094
G0 Z17.500
G0 X17.398 Y3.300 Z17.500
G0 X17.398 Y3.300 Z15.500
G1 X17.398 Y3.300 Z7.500
G1 X17.190 Y3.275 Z7.500
G3 X17.398 Y3.300 Z7.500 I0.009 J0.798
G0 Z17.500
G0 X13.574 Y6.023 Z17.500
G0 X13.574 Y6.023 Z15.500
G1 X13.574 Y6.023 Z7.500
G1 X13.567 Y6.064 Z7.500
G3 X13.574 Y6.023 Z7.500 I0.155 J0.006
G0 Z17.500
G0 X16.667 Y3.259 Z17.500
G0 X16.667 Y3.259 Z15.500
G1 X16.667 Y3.259 Z7.500
G1 X16.458 Y3.271 Z7.500
G3 X16.667 Y3.259 Z7.500 I0.151 J0.783
G0 Z17.500
G0 X19.917 Y7.685 Z17.500
G0 X19.917 Y7.685 Z15.500
G1 X19.917 Y7.685 Z7.500
G1 X19.987 Y7.485 Z7.500
G3 X19.917 Y7.685 Z7.500 I-0.787 J-0.165
G0 Z17.500
G0 X17.892 Y3.430 Z17.500
G0 X17.892 Y3.430 Z15.500
G1 X17.892 Y3.430 Z7.500
G1 X17.688 Y3.368 Z7.500
G3 X17.892 Y3.430 Z7.500 I-0.135 J0.798
G0 Z17.500
G0 X16.902 Y3.251 Z17.500
G0 X16.902 Y3.251 Z15.500
G1 X16.902 Y3.251 Z7.500
G3 X16.957 Y3.252 Z7.500 I0.021 J0.209
G1 X16.902 Y3.251 Z7.500
G0 Z17.500
G0 X13.619 Y7.291 Z17.500
G0 X13.619 Y7.291 Z15.500
G1 X13.619 Y7.291 Z7.500
G1 X13.677 Y7.494 Z7.500
G3 X13.619 Y7.291 Z7.500 I0.738 J-0.320
G0 Z17.500
G0 X14.020 Y4.820 Z17.500
G0 X14.020 Y4.820 Z15.500
G1 X14.020 Y4.820 Z7.500
G1 X13.999 Y4.855 Z7.500
G3 X14.020 Y4.820 Z7.500 I0.143 J0.060
G0 Z17.500
G0 X13.546 Y6.787 Z17.500
G0 X13.546 Y6.787 Z15.500
G1 X13.546 Y6.787 Z7.500
G1 X13.566 Y6.998 Z7.500
G3 X13.546 Y6.787 Z7.500 I0.787 J-0.184
G0 Z17.500
G0 X18.598 Y3.765 Z17.500
G0 X18.598 Y3.765 Z15.500
G1 X18.598 Y3.765 Z7.500
G1 X18.555 Y3.738 Z7.500
G3 X18.598 Y3.765 Z7.500 I-0.083 J0.179
G0 Z17.500
G0 X14.121 Y8.419 Z17.500
G0 X14.121 Y8.419 Z15.500
G1 X14.121 Y8.419 Z7.500
G1 X14.247 Y8.590 Z7.500
G3 X14.121 Y8.419 Z7.500 I0.583 J-0.561
G0 Z17.500
G0 X20.057 Y7.196 Z17.500
G0 X20.057 Y7.196 Z15.500
G1 X20.057 Y7.196 Z7.500
G1 X20.091 Y6.986 Z7.500
G3 X20.057 Y7.196 Z7.500 I-0.808 J-0.022
G0 Z17.500
G0 X13.685 Y5.561 Z17.500
G0 X13.685 Y5.561 Z15.500
G1 X13.685 Y5.561 Z7.500
G1 X13.631 Y5.766 Z7.500
G3 X13.685 Y5.561 Z7.500 I0.800 J0.103
G0 Z17.500
G0 X20.068 Y5.962 Z17.500
G0 X20.068 Y5.962 Z15.500
G1 X20.068 Y5.962 Z7.500
G1 X20.026 Y5.754 Z7.500
G3 X20.068 Y5.962 Z7.500 I-0.763 J0.262
G0 Z17.500
G0 X13.868 Y7.983 Z17.500
G0 X13.868 Y7.983 Z15.500
G1 X13.868 Y7.983 Z7.500
G1 X13.959 Y8.168 Z7.500
G3 X13.868 Y7.983 Z7.500 I0.652 J-0.434
G0 Z17.500
G0 X19.941 Y5.469 Z17.500
G0 X19.941 Y5.469 Z15.500
G1 X19.941 Y5.469 Z7.500
G1 X19.863 Y5.272 Z7.500
G3 X19.941 Y5.469 Z7.500 I-0.704 J0.393
G0 Z17.500
G0 X13.877 Y5.089 Z17.500
G0 X13.877 Y5.089 Z15.500
G1 X13.877 Y5.089 Z7.500
G1 X13.787 Y5.281 Z7.500
G3 X13.877 Y5.089 Z7.500 I0.769 J0.244
G0 Z17.500
G0 X13.532 Y6.495 Z17.500
G0 X13.532 Y6.495 Z15.500
G1 X13.532 Y6.495 Z7.500
G3 X13.547 Y6.303 Z7.500 I0.732 J-0.041
G2 X13.532 Y6.495 Z7.500 I1.064 J0.178
G0 Z17.500
G0 X19.756 Y5.030 Z17.500
G0 X19.756 Y5.030 Z15.500
G1 X19.756 Y5.030 Z7.500
G1 X19.737 Y4.994 Z7.500
G3 X19.756 Y5.030 Z7.500 I-0.128 J0.088
G0 Z17.500
G0 X15.024 Y3.794 Z17.500
G0 X15.024 Y3.794 Z15.500
G1 X15.024 Y3.794 Z7.500
G1 X14.849 Y3.913 Z7.500
G3 X15.024 Y3.794 Z7.500 I0.535 J0.600
G0 Z17.500
G0 X18.913 Y9.093 Z17.500
G0 X18.913 Y9.093 Z15.500
G1 X18.913 Y9.093 Z7.500
G1 X19.074 Y8.958 Z7.500
G3 X18.913 Y9.093 Z7.500 I-0.588 J-0.540
G0 Z17.500
G0 X19.594 Y8.340 Z17.500
G0 X19.594 Y8.340 Z15.500
G1 X19.594 Y8.340 Z7.500
G1 X19.696 Y8.161 Z7.500
G3 X19.594 Y8.340 Z7.500 I-0.726 J-0.294
G0 Z17.500
G0 X14.614 Y9.316 Z17.500
G0 X14.614 Y9.316 Z15.500
G1 X14.614 Y9.316 Z7.500
G3 X17.857 Y3.150 Z7.500 I2.214 J-2.771
G3 X18.792 Y9.487 Z7.500 I-1.018 J3.387
G3 X18.632 Y9.001 Z7.500 I-0.075 J-0.244
G2 X15.293 Y3.914 Z7.500 I-1.804 J-2.456
G2 X14.981 Y8.992 Z7.500 I1.556 J2.644
G3 X14.614 Y9.316 Z7.500 I-0.199 J0.145
G0 Z17.500
G0 X14.590 Y9.593 Z17.500
G0 X14.590 Y9.593 Z15.500
G1 X14.590 Y9.593 Z7.500
G3 X17.930 Y2.910 Z7.500 I2.233 J-3.060
G3 X18.877 Y9.724 Z7.500 I-1.087 J3.624
G3 X18.473 Y8.809 Z7.500 I-0.164 J-0.475
G2 X15.433 Y4.121 Z7.500 I-1.644 J-2.263
G2 X15.054 Y8.709 Z7.500 I1.395 J2.425
G3 X14.590 Y9.593 Z7.500 I-0.270 J0.422
G0 Z17.500
G0 Z17.500
(finish operation: Pocket_Shape001)
(begin postamble)
M05
G17 G54 G90 G80 G40
M2